FENGYUN 1C DEB          
1 31532U 99025BXX 17345.07265899  .00001897  00000-0  81891-3 0  9990
2 31532  99.1823  86.5305 0139026 328.6812  30.6136 14.20674634229791
